LANDSAT 8               
1 39084U 13008A   20206.41150181  .00000013  00000-0  13023-4 0  9994
2 39084  98.2248 275.6513 0001515  98.2779 261.8593 14.57106719396083
